STARLINK-2495
1 28325C 21036BB  21325.14025913 -.00000984  00000-0 -65954-4 0  3251
2 28325  53.0555 307.6069 0001721  56.2854 353.5375 15.06400136    17
